OBJECT_NAME,OBJECT_ID,EPOCH,MEAN_MOTION,ECCENTRICITY,INCLINATION,RA_OF_ASC_NODE,ARG_OF_PERICENTER,MEAN_ANOMALY,EPHEMERIS_TYPE,CLASSIFICATION_TYPE,NORAD_CAT_ID,ELEMENT_SET_NO,REV_AT_EPOCH,BSTAR,MEAN_MOTION_DOT,MEAN_MOTION_DDOT
ASTRA 2E,2013-056A,2026-07-04T12:18:45.652896,1.00275893,.0002755,0.0723,317.7136,162.5208,15.5027,0,U,39285,999,4659,0,.163E-5,0
FM-6,2013-058A,2026-07-02T16:51:02.864736,1.00271889,.00019604,0.0160,40.7600,138.6453,237.7772,0,U,39360,999,4622,0,-.5E-7,0
RADUGA-1M 3,2013-062A,2026-07-02T17:34:15.543840,1.00273797,.00018777,5.9949,72.1589,282.0892,225.0751,0,U,39375,999,4626,0,.161E-5,0
SES-8,2013-071A,2026-07-05T10:51:51.327360,1.00271417,.0002894,0.0364,266.7689,196.3345,78.3152,0,U,39460,999,4461,0,-.256E-5,0
INMARSAT 5-F1,2013-073A,2026-07-02T20:52:37.649280,1.00272744,.00005811,0.0185,28.4066,336.8665,291.4245,0,U,39476,999,4573,0,.38E-6,0
TKSAT-1 (TUPAC KATARI),2013-075A,2026-07-05T13:25:35.476896,1.00269948,.0002618,0.0403,127.6668,331.1348,298.9465,0,U,39481,999,4578,0,-.181E-5,0
EXPRESS-AM5,2013-077A,2026-07-05T07:39:42.971904,1.00272154,.0000259,0.0290,270.1698,160.4646,107.6421,0,U,39487,999,4654,0,-.267E-5,0
GSAT-14,2014-001A,2026-07-05T14:11:34.716192,1.00270945,.0001419,0.0379,227.5883,339.3269,3.5460,0,U,39498,999,4556,0,-.63E-6,0
THAICOM 6,2014-002A,2026-07-05T12:30:11.034720,1.00270378,.0004662,0.0649,106.7230,13.4419,69.4025,0,U,39500,999,4564,0,-.107E-5,0
ABS-2,2014-006A,2026-07-05T14:11:49.691904,1.00271603,.00036485,0.0295,75.7935,13.0706,122.5966,0,U,39508,999,4546,0,-.72E-6,0
ATHENA-FIDUS,2014-006B,2026-07-03T14:06:56.571264,1.00273035,.0001624,0.0305,95.7359,20.1277,55.2824,0,U,39509,999,4525,0,.165E-5,0
TURKSAT 4A,2014-007A,2026-07-05T14:02:24.446688,1.00269968,.00007526,0.0797,281.9243,340.5590,273.6937,0,U,39522,999,4515,0,.16E-5,0
EXPRESS-AT1,2014-010A,2026-07-05T12:26:11.419008,1.00308315,.0004582,0.3023,85.4887,47.3164,41.8582,0,U,39612,999,4500,0,.17E-6,0
EXPRESS-AT2,2014-010B,2026-07-04T12:26:37.400352,1.00270819,.00002193,0.0194,31.2706,97.2986,36.6114,0,U,39613,999,4467,0,0,0
AMAZONAS 4A,2014-011A,2026-07-02T18:45:40.773888,1.00269478,.00049412,0.0699,210.9618,278.3284,358.9301,0,U,39616,999,4487,0,-.241E-5,0
ASTRA 5B,2014-011B,2026-07-02T20:26:31.722720,1.00274657,.00022147,0.0771,302.4799,165.1332,143.4211,0,U,39617,999,4482,0,.148E-5,0
IRNSS-1B,2014-017A,2026-07-04T17:34:16.565088,1.00272447,.00229436,28.8946,240.1001,195.0922,166.1625,0,U,39635,999,4497,0,.137E-5,0
LUCH-5V,2014-023A,2026-07-05T16:29:09.531168,1.00268671,.00026904,5.1759,69.5609,61.6233,134.4978,0,U,39727,999,4454,0,-.256E-5,0
KAZSAT-3,2014-023B,2026-07-02T18:35:39.751296,1.00274193,.00003398,0.0106,10.0372,160.4347,87.7460,0,U,39728,999,4261,0,.71E-6,0
EUTELSAT 3B,2014-030A,2026-07-05T13:51:10.524960,1.00272253,.00040488,0.0616,12.0382,90.0261,32.3892,0,U,39773,999,4425,0,.34E-6,0
ASIASAT 8 (AMOS-7),2014-046A,2026-07-05T12:37:49.372032,1.00272830,.0001558,0.0304,275.5990,184.2741,118.4165,0,U,40107,999,10233,0,-.319E-5,0
ASIASAT 6,2014-052A,2026-07-05T14:24:40.957920,1.00272424,.0000784,0.0233,280.1471,207.4672,132.0684,0,U,40141,999,4326,0,-.348E-5,0
OPTUS 10,2014-054A,2026-07-03T14:13:38.851392,1.00270440,.0002098,0.0560,293.6774,169.1762,188.1804,0,U,40146,999,4319,0,-.136E-5,0
MEASAT-3B,2014-054B,2026-07-05T14:56:41.657568,1.00270396,.00025388,0.0271,25.2777,63.4419,150.5531,0,U,40147,999,4309,0,-.227E-5,0
HIMAWARI-8,2014-060A,2026-07-05T14:19:39.820224,1.00270538,.0000944,0.0175,34.0764,84.3005,160.8038,0,U,40267,999,4294,0,-.262E-5,0
IRNSS-1C,2014-061A,2026-07-05T07:23:27.436416,1.00273902,.0022119,6.5628,88.5856,4.4363,24.1363,0,U,40269,999,4287,0,-.151E-5,0
INTELSAT 30 (IS-30),2014-062A,2026-07-05T05:09:09.031104,1.00276491,.0001695,0.0182,48.3724,343.0020,234.0864,0,U,40271,999,697,0,-.138E-5,0
ARSAT 1,2014-062B,2026-07-02T15:43:36.200640,1.00270091,.00019991,0.0392,290.9521,168.7347,345.0962,0,U,40272,999,4278,0,-.249E-5,0
EUTELSAT 53A,2014-064A,2026-07-05T05:59:38.734368,1.00269059,.000129,0.0170,300.9294,247.7332,237.4945,0,U,40277,999,4174,0,.112E-5,0
GSAT-16,2014-078A,2026-07-02T21:21:34.588224,1.00271348,.00078129,0.0472,262.0432,186.4293,207.9354,0,U,40332,999,4226,0,.96E-6,0
DIRECTV 14,2014-078B,2026-07-05T13:22:05.811744,1.00271312,.0000109,0.0117,38.6757,342.0332,4.1209,0,U,40333,999,4222,0,-.112E-5,0
